#dP2024  3  1 12  0  0.00000000      96 __u+U IGS20 EXT  IAC
## 2303 475200.00000000   900.00000000 60370 0.5000000000000
+  118   C06C07C08C09C10C11C12C13C14C16C19C20C21C22C23C24C25
+        C26C27C28C29C30C32C33C34C35C36C37C38C39C40C41C42C43
+        C44C45C46E02E03E04E05E07E08E09E10E11E12E13E14E15E18
+        E19E21E24E25E26E27E30E31E33E34E36G01G02G03G04G05G06
+        G07G08G09G10G11G12G13G14G15G16G17G18G19G20G21G22G23
+        G24G25G26G27G28G29G30G31G32J02J04R01R02R03R04R05R07
+        R08R09R11R12R13R14R15R16R17R18R19R20R21R22R24R26  0
++         9 10 11  9  8  9  8 10  8  9  9  8  9  8  7  8  8
++         9  7  9  8  8  8  9  8  8  8  9 11 11 10  8  9  8
++        10  9  7  7  7  7  7  7  7  8  7  7  7  9  7  8  6
++         8  6  7  7  8  8  8  8  7  7  7  9  8  7  8  8  8
++         8  6  7  7  8  7  7  7  8  6  6  7  7  8  7  6  7
++         6  8  7  7  7  8  8  7  7  9  9  8  7  8  7  7  8
++         9  9  7  7  7  7  7  7  8 10 11 11  9  8  9  9  0
%c M  cc GPS ccc cccc cccc cccc cccc ccccc ccccc ccccc ccccc
%c cc cc ccc ccc cccc cccc cccc cccc ccccc ccccc ccccc ccccc
%f  0.0000000  0.000000000  0.00000000000  0.000000000000000
%f  0.0000000  0.000000000  0.00000000000  0.000000000000000
%i    0    0    0    0      0      0      0      0         0
%i    0    0    0    0      0      0      0      0         0
/* IAC                                ULTRA-RAPID PREDICTION
/* S/V CLOCKS ARE ALIGNED TO GNSS TIME                      
/* G:C1WC2W R:C1PC2P E:C1XC5X C:C2IC6I J:C1CC2S             
/* PCV:IGS20_2290 OL/AL:FES2004  NONE     YN ORB:CoN CLK:CoN
*  2024 03 02 11 45  0.00000000
PC06  -8620.589144  23158.195790 -34135.698594    245.692764
PC07 -16256.836475  37582.122795   9667.562144   -890.334011
PC08   -707.985399  35904.372823  22262.636422     -4.586581
PC09     71.811098  24844.506372 -33543.806915   -565.109860
PC10  -9283.709900  37677.638206  16137.218391     62.282275
PC11   1421.394799 -15479.882435 -23107.678330    438.980192
PC12  21051.342175 -11340.845376 -14344.041022   -789.385403
PC13   4952.421793  39230.920369  15180.558132    421.858101
PC14   4618.244942 -25973.128322   9210.792789    313.645855
PC16 -12272.527198  21367.507817 -33970.728593   -372.280150
PC19   2645.657220  22077.433760 -16816.117947   -922.191444
PC20 -10175.658267  25903.484324  -1778.459132   -216.614685
PC21  18035.726674 -14333.946961 -15747.518415   -961.492521
PC22  14735.498477   5310.372950 -23093.298326    -89.631648
PC23 -20672.690475 -15659.623509 -10301.514878   -778.022837
PC24   4134.778131 -18912.156137  20070.145319    934.826603
PC25 -12575.559074 -24034.564864   6493.611925    339.549183
PC26  17240.232185  -3202.045472  21694.564906   -257.006269
PC27 -26172.312823   7167.752532   6524.812102    278.951515
PC28 -26050.360502  -3906.733526  -9215.562642    212.508751
PC29   9602.325510  14256.225043  21976.767006    249.142625
PC30 -12536.692270  15557.959027  19483.280511    -32.356948
PC32 -17947.669068  14332.069084  15859.078671   -576.220561
PC33  -2744.712472 -22155.394337  16764.993959   -953.550271
PC34  10820.020342 -15889.378619 -20232.813000    381.287731
PC35  26100.770453   3054.657924   9314.812611    420.769287
PC36  11725.228526  24374.358457  -6877.551174      4.365455
PC37 -17491.266232   2456.722195 -21596.497146   -940.638276
PC38  -6756.961438  31514.035268  27306.451998    140.221238
PC39 -18467.853131  19751.987606 -32349.390785     -7.384345
PC40 -23833.462083  33625.520592   8170.791455    -58.942973
PC41 -14416.094442  -6223.002990  23128.020752   -898.937252
PC42  11075.192205 -25632.044861    253.527858   -449.844735
PC43  -8607.189041 -14675.292382 -22135.112884     62.563061
PC44  25901.145300  -8144.538226  -6381.386737    401.059281
PC45  20613.289951  15647.744692  10461.946802    -73.398476
PC46  -3299.953674  19467.558713 -19747.175143   -128.316113
PE02  16733.201412   4566.544069  23976.393681    107.885952
PE03  25118.153512  -3395.810682 -15295.515043    -97.506320
PE04 -23733.810204  17474.209094  -2736.275439   -340.141551
PE05  11808.342250  12450.377976 -24111.707275   4725.239544
PE07   8891.782104 -21191.916128  18667.903468   -106.693032
PE08  24063.801065 -17122.990328   2059.801446   -232.508777
PE09  -9052.669867  21107.645689 -18661.064360   -355.838215
PE10  -8557.336742  13554.007831  24881.264216   -606.174316
PE11   2827.485314  18284.533386  23092.433269   3208.203064
PE12 -17529.153836   7399.662512  22682.092457   -930.403833
PE13  -2184.326935 -18024.954132 -23374.849578    -20.376558
PE14    516.857204 -22087.971283 -22196.517893     54.965044
PE15  17918.658102  -6969.698478 -22493.340009    -88.908950
PE18  13369.915910  11093.513469  19199.033078    389.229163
PE19 -24228.229674   1500.022499  16951.628538   -509.937075
PE21 -11006.779209 -23335.799437 -14510.835553   -581.843488
PE24  -1805.862020  29257.747633  -4231.068672   -628.646820
PE25  10791.548802  23637.704385  14181.307655      1.593073
PE26 -21073.287967 -18244.462938  -9966.132274    384.688031
PE27   1431.220859 -29306.623923   3846.131517   -288.498634
PE30  13057.842876 -17688.450147  19793.673103    -53.273317
PE31 -12877.588376  17938.051092 -19717.565169    -17.283864
PE33 -27257.183351  -8392.389027   7936.767948      8.417047
PE34  27232.405172   7952.566927  -8446.527921    -97.700379
PE36  20645.275578  18362.700184  10600.891568   -193.579881
PG01 -23726.504948 -12341.869469     42.113859    171.950809
PG02 -20910.524297 -14217.578019  -8056.594056   -476.813466
PG03 -11823.535941 -17453.810820  16088.206025    227.481549
PG04 -14882.164064  -7657.833936  20669.344417    305.119967
PG05   6449.463703  25209.441530  -5240.736138   -163.869549
PG06 -11257.401036  10324.207278  21809.657425    385.011635
PG07 -24334.240845  -4168.863435  -9900.642277    -74.869651
PG08  -7390.820951 -13584.009386 -21668.964506     24.822815
PG09 -22652.341256   4713.547712  13013.824191    110.666966
PG10  10978.952217 -15809.765926 -17947.595290      0.949532
PG11   1261.496694  16892.747111  20492.703350   -593.863782
PG12  10570.020543  18749.755884  15317.777622   -483.304197
PG13  -3209.428412  16951.473638 -20332.788716    630.524135
PG14 -13564.781607  11860.011338 -19428.135623    340.049771
PG15   9025.934670  13347.256723 -21593.435651    133.402451
PG16    208.688560 -26307.301705   -563.316156   -350.449313
PG17 -23145.326189  13176.583975   -346.849188    715.150607
PG18  23670.081823   3249.568955 -11783.513559   -567.269391
PG19 -19059.815488  16241.539288   8094.099011    448.305996
PG20    193.527514  25372.117583   8188.720901    385.447440
PG21 -17522.339109 -16030.789446 -12375.119613    132.915506
PG22 -10486.776505  19628.564900 -14288.463019     22.381220
PG23  14644.788545  -2546.119833 -21981.885004    168.059015
PG24  19027.608048  15741.955121 -10718.929202   -440.341862
PG25  15046.718056   7995.646605  20098.792505    490.190920
PG26   5097.609928 -23269.178236  11205.902100    184.222324
PG27   5532.035860 -18817.761142 -17981.807490     -8.629127
PG28  13779.273683  -9519.677747  20593.060893   -149.920948
PG29  22311.254750  -1292.060681  14378.334272   -605.785145
PG30 -18890.460134   5315.680461 -17885.385933   -425.296058
PG31   4366.008118 -14797.640310  21376.563256   -227.908828
PG32  20958.282184 -16019.912044   2085.192849   -614.253374
PJ02 -22528.660615  29409.143904 -15505.315999     -2.499411
PJ04 -30274.208435  29092.017197  10760.138089     50.787762
PR01  13587.345724  -2262.240934 -21465.306728     78.608457
PR02  16878.469703 -16601.023277  -9359.990915    -22.533816
PR03  10300.966269 -21869.152894   8102.697712     95.559989
PR04  -1350.534181 -14869.582582  20712.365759    225.801683
PR05 -12538.917709    -39.554109  22234.238836    127.775651
PR07  -9919.478770  21812.780298  -8771.404375     77.038497
PR08   1645.599474  14784.561468 -20665.415745    -74.606259
PR09  -9315.337968   6588.562894 -22796.968068    173.063026
PR11  11105.659863  22946.255271   -616.606182     32.571962
PR12  14879.393624  11698.089812  17126.759885     37.338734
PR13  10355.887892  -3974.215615  22949.916205    -44.901857
PR14  -1712.284427 -20241.295930  15445.303485     26.150780
PR15 -11573.946538 -22716.467024   -888.454436     81.717021
PR16 -14863.634470 -11949.187906 -16954.934570     23.688419
PR17   5384.659259 -10019.163788 -22826.149240     65.618898
PR18 -12547.821955 -10116.163612 -19775.597925    130.122525
PR19 -23257.770269  -6535.807110  -8193.255279   -267.843817
PR20 -21990.412587   2926.681155  12643.601515   -109.158454
PR21  -5190.907120   9939.026830  22909.655157    -81.322960
PR22  13182.512385  10662.057704  19077.329488    110.784059
PR24  21517.763183  -4347.485194 -12979.894917    -46.145092
PR26   1046.208475  15437.778452 -20246.296965   -195.663531
EOF
